GOES 1 (SMS-C) [-]      
1 08366U 75100A   17345.25197053 -.00000171  00000-0  00000+0 0  9997
2 08366  11.7564 316.3973 0006943 296.7294 183.0876  1.00231763154020
